TRANSPORTER-11 OBJECT A 
1 60468U 24149A   26068.74646182  .00010774  00000+0  36054-3 0  9993
2 60468  97.3780 149.0949 0003110 191.0010 169.1164 15.31141332 86830
STARLINK-32517          
1 61980U 24210X   26068.35006430  .00033061  00000+0  12058-2 0  9996
2 61980  42.9999 182.1168 0001233 267.5380  92.5331 15.27572420 74778
